{
  "type": "FeatureCollection",
  "features": [
    {
      "type": "Feature",
      "properties": {
        "norad_id": 41866,
        "name": "GOES 16",
        "group": "weather",
        "lat": 0.0051180741059945545,
        "lon": -100.66921691044065,
        "alt_km": 35772.08343307871,
        "timestamp": "2025-12-10T18:56:59.704962+00:00",
        "meta_object_name": "GOES 16",
        "meta_object_id": "2016-071A",
        "meta_epoch": "2025-12-10T10:23:06.017856",
        "meta_mean_motion": 1.00271273,
        "meta_eccentricity": 0.0003344,
        "meta_inclination": 0.0648,
        "meta_ra_of_asc_node": 104.3227,
        "meta_arg_of_pericenter": 157.3495,
        "meta_mean_anomaly": 228.8386,
        "meta_ephemeris_type": 0,
        "meta_classification_type": "U",
        "meta_norad_cat_id": 41866,
        "meta_element_set_no": 999,
        "meta_rev_at_epoch": 3321,
        "meta_bstar": 0,
        "meta_mean_motion_dot": -8.7e-07,
        "meta_mean_motion_ddot": 0,
        "tle_line1": "1 41866U 16071A   25344.43270854 -.00000087  00000+0  00000+0 0  9995",
        "tle_line2": "2 41866   0.0648 104.3227 0003344 157.3495 228.8386  1.00271273 33211"
      },
      "geometry": {
        "type": "Point",
        "coordinates": [
          -100.66921691044065,
          0.0051180741059945545
        ]
      }
    },
    {
      "type": "Feature",
      "properties": {
        "norad_id": 41882,
        "name": "FENGYUN 4A",
        "group": "weather",
        "lat": 1.3246189385971943,
        "lon": 127.79836773075503,
        "alt_km": 35787.86011829326,
        "timestamp": "2025-12-10T18:56:59.704974+00:00",
        "meta_object_name": "FENGYUN 4A",
        "meta_object_id": "2016-077A",
        "meta_epoch": "2025-12-09T21:00:35.659872",
        "meta_mean_motion": 1.00275053,
        "meta_eccentricity": 0.00048891,
        "meta_inclination": 1.8422,
        "meta_ra_of_asc_node": 82.422,
        "meta_arg_of_pericenter": 142.7758,
        "meta_mean_anomaly": 292.6612,
        "meta_ephemeris_type": 0,
        "meta_classification_type": "U",
        "meta_norad_cat_id": 41882,
        "meta_element_set_no": 999,
        "meta_rev_at_epoch": 3303,
        "meta_bstar": 0,
        "meta_mean_motion_dot": -3.54e-06,
        "meta_mean_motion_ddot": 0,
        "tle_line1": "1 41882U 16077A   25343.87541273 -.00000354  00000+0  00000+0 0  9999",
        "tle_line2": "2 41882   1.8422  82.4220 0004889 142.7758 292.6612  1.00275053 33033"
      },
      "geometry": {
        "type": "Point",
        "coordinates": [
          127.79836773075503,
          1.3246189385971943
        ]
      }
    },
    {
      "type": "Feature",
      "properties": {
        "norad_id": 41884,
        "name": "CYGFM05",
        "group": "weather",
        "lat": -34.432627581506026,
        "lon": -19.011628642571164,
        "alt_km": 428.7357755937146,
        "timestamp": "2025-12-10T18:56:59.704985+00:00",
        "meta_object_name": "CYGFM05",
        "meta_object_id": "2016-078A",
        "meta_epoch": "2025-12-10T11:33:25.680672",
        "meta_mean_motion": 15.47503338,
        "meta_eccentricity": 0.0009794,
        "meta_inclination": 34.9599,
        "meta_ra_of_asc_node": 61.8808,
        "meta_arg_of_pericenter": 162.5762,
        "meta_mean_anomaly": 197.5297,
        "meta_ephemeris_type": 0,
        "meta_classification_type": "U",
        "meta_norad_cat_id": 41884,
        "meta_element_set_no": 999,
        "meta_rev_at_epoch": 49941,
        "meta_bstar": 0.00051452,
        "meta_mean_motion_dot": 0.0002734,
        "meta_mean_motion_ddot": 0,
        "tle_line1": "1 41884U 16078A   25344.48154723  .00027340  00000+0  51452-3 0  9994",
        "tle_line2": "2 41884  34.9599  61.8808 0009794 162.5762 197.5297 15.47503338499411"
      },
      "geometry": {
        "type": "Point",
        "coordinates": [
          -19.011628642571164,
          -34.432627581506026
        ]
      }
    },
    {
      "type": "Feature",
      "properties": {
        "norad_id": 41885,
        "name": "CYGFM04",
        "group": "weather",
        "lat": 21.94289444507729,
        "lon": 179.45181683375424,
        "alt_km": 408.04166155374696,
        "timestamp": "2025-12-10T18:56:59.704996+00:00",
        "meta_object_name": "CYGFM04",
        "meta_object_id": "2016-078B",
        "meta_epoch": "2025-12-10T12:10:11.957376",
        "meta_mean_motion": 15.50209953,
        "meta_eccentricity": 0.0009183,
        "meta_inclination": 34.9355,
        "meta_ra_of_asc_node": 36.555,
        "meta_arg_of_pericenter": 190.5613,
        "meta_mean_anomaly": 169.4917,
        "meta_ephemeris_type": 0,
        "meta_classification_type": "U",
        "meta_norad_cat_id": 41885,
        "meta_element_set_no": 999,
        "meta_rev_at_epoch": 49959,
        "meta_bstar": 0.00052239,
        "meta_mean_motion_dot": 0.00030547,
        "meta_mean_motion_ddot": 0,
        "tle_line1": "1 41885U 16078B   25344.50708284  .00030547  00000+0  52239-3 0  9992",
        "tle_line2": "2 41885  34.9355  36.5550 0009183 190.5613 169.4917 15.50209953499599"
      },
      "geometry": {
        "type": "Point",
        "coordinates": [
          179.45181683375424,
          21.94289444507729
        ]
      }
    },
    {
      "type": "Feature",
      "properties": {
        "norad_id": 41886,
        "name": "CYGFM02",
        "group": "weather",
        "lat": 20.356765580348874,
        "lon": -179.04489884910518,
        "alt_km": 403.2375837669015,
        "timestamp": "2025-12-10T18:56:59.705007+00:00",
        "meta_object_name": "CYGFM02",
        "meta_object_id": "2016-078C",
        "meta_epoch": "2025-12-10T10:37:02.703360",
        "meta_mean_motion": 15.51574732,
        "meta_eccentricity": 0.0010869,
        "meta_inclination": 34.9444,
        "meta_ra_of_asc_node": 35.3352,
        "meta_arg_of_pericenter": 189.4667,
        "meta_mean_anomaly": 170.5851,
        "meta_ephemeris_type": 0,
        "meta_classification_type": "U",
        "meta_norad_cat_id": 41886,
        "meta_element_set_no": 999,
        "meta_rev_at_epoch": 49971,
        "meta_bstar": 0.00052963,
        "meta_mean_motion_dot": 0.00032552,
        "meta_mean_motion_ddot": 0,
        "tle_line1": "1 41886U 16078C   25344.44239240  .00032552  00000+0  52963-3 0  9999",
        "tle_line2": "2 41886  34.9444  35.3352 0010869 189.4667 170.5851 15.51574732499710"
      },
      "geometry": {
        "type": "Point",
        "coordinates": [
          -179.04489884910518,
          20.356765580348874
        ]
      }
    },
    {
      "type": "Feature",
      "properties": {
        "norad_id": 41887,
        "name": "CYGFM01",
        "group": "weather",
        "lat": -21.980463881823717,
        "lon": 26.91676731132471,
        "alt_km": 429.59397310856457,
        "timestamp": "2025-12-10T18:56:59.705017+00:00",
        "meta_object_name": "CYGFM01",
        "meta_object_id": "2016-078D",
        "meta_epoch": "2025-12-10T11:23:14.678016",
        "meta_mean_motion": 15.48077649,
        "meta_eccentricity": 0.0009391,
        "meta_inclination": 34.943,
        "meta_ra_of_asc_node": 64.2923,
        "meta_arg_of_pericenter": 154.4149,
        "meta_mean_anomaly": 205.7039,
        "meta_ephemeris_type": 0,
        "meta_classification_type": "U",
        "meta_norad_cat_id": 41887,
        "meta_element_set_no": 999,
        "meta_rev_at_epoch": 49935,
        "meta_bstar": 0.00051341,
        "meta_mean_motion_dot": 0.00027833,
        "meta_mean_motion_ddot": 0,
        "tle_line1": "1 41887U 16078D   25344.47447544  .00027833  00000+0  51341-3 0  9996",
        "tle_line2": "2 41887  34.9430  64.2923 0009391 154.4149 205.7039 15.48077649499356"
      },
      "geometry": {
        "type": "Point",
        "coordinates": [
          26.91676731132471,
          -21.980463881823717
        ]
      }
    },
    {
      "type": "Feature",
      "properties": {
        "norad_id": 41888,
        "name": "CYGFM08",
        "group": "weather",
        "lat": -0.5373921327339405,
        "lon": 44.47759903917378,
        "alt_km": 425.379788215826,
        "timestamp": "2025-12-10T18:56:59.705028+00:00",
        "meta_object_name": "CYGFM08",
        "meta_object_id": "2016-078E",
        "meta_epoch": "2025-12-10T11:13:17.577120",
        "meta_mean_motion": 15.49276965,
        "meta_eccentricity": 0.0011255,
        "meta_inclination": 34.9463,
        "meta_ra_of_asc_node": 47.3562,
        "meta_arg_of_pericenter": 178.1643,
        "meta_mean_anomaly": 181.9121,
        "meta_ephemeris_type": 0,
        "meta_classification_type": "U",
        "meta_norad_cat_id": 41888,
        "meta_element_set_no": 999,
        "meta_rev_at_epoch": 49958,
        "meta_bstar": 0.00052757,
        "meta_mean_motion_dot": 0.00029867,
        "meta_mean_motion_ddot": 0,
        "tle_line1": "1 41888U 16078E   25344.46756455  .00029867  00000+0  52757-3 0  9991",
        "tle_line2": "2 41888  34.9463  47.3562 0011255 178.1643 181.9121 15.49276965499583"
      },
      "geometry": {
        "type": "Point",
        "coordinates": [
          44.47759903917378,
          -0.5373921327339405
        ]
      }
    }
  ]
}